MALLIGYONG-1            
1 58400U 23179A   24243.55718662  .00011194  00000+0  48747-3 0  9992
2 58400  97.3922 129.1535 0000567  58.0750 302.0541 15.22380045 43035
